{"epoch":1784710044,"count":18256,"objects":[{"id":"66664","name":"SOYUZ MS-28","type":"PAYLOAD","l1":"1 66664U 25275A   26202.18553447  .00005896  00000-0  11479-3 0  9991","l2":"2 66664  51.6316 131.8443 0006849 320.6461  39.4029 15.49071756576117"},{"id":"67796","name":"DRAGON FREEDOM 3","type":"PAYLOAD","l1":"1 67796U 26031A   26202.18553447  .00005896  00000-0  11479-3 0  9999","l2":"2 67796  51.6316 131.8443 0006849 320.6461  39.4029 15.49071756576417"},{"id":"69180","name":"SZ-23","type":"PAYLOAD","l1":"1 69180U 26113A   26202.43210246  .00010973  00000-0  14512-3 0  9997","l2":"2 69180  41.4683 114.0267 0001747 306.5318  53.5359 15.58235366297965"},{"id":"100057","name":"SOYUZ MS-29","type":"PAYLOAD","l1":"1 A0057U 26162A   26202.18553447  .00005896  00000-0  11479-3 0  9991","l2":"2 A0057  51.6316 131.8443 0006849 320.6461  39.4029 15.49071756576278"}]}